{"type": "FeatureCollection", "features": [ {"type": "Feature", "properties": {"norad_id": 41019, "name": "GPS BIIF-11 (PRN 10)", "group": "gnss", "lat": -50.37003156959867, "lon": -13.78243597754826, "alt_km": 20053.109009841242, "timestamp": "2025-12-05T05:43:15.351858+00:00", "meta": {"OBJECT_NAME": "GPS BIIF-11 (PRN 10)", "OBJECT_ID": "2015-062A", "EPOCH": "2025-12-03T20:03:13.853664", "MEAN_MOTION": 2.0056693, "ECCENTRICITY": 0.0110571, "INCLINATION": 56.8259, "RA_OF_ASC_NODE": 38.3468, "ARG_OF_PERICENTER": 229.69, "MEAN_ANOMALY": 129.3913, "EPHEMERIS_TYPE": 0, "CLASSIFICATION_TYPE": "U", "NORAD_CAT_ID": 41019, "ELEMENT_SET_NO": 999, "REV_AT_EPOCH": 7391, "BSTAR": 0, "MEAN_MOTION_DOT": -6.5e-07, "MEAN_MOTION_DDOT": 0}, "tle": {"line1": "1 41019U 15062A   25337.83557701 -.00000065  00000+0  00000+0 0  9995", "line2": "2 41019  56.8259  38.3468 0110571 229.6900 129.3913  2.00566930 73916"}}, "geometry": {"type": "Point", "coordinates": [-13.78243597754826, -50.37003156959867]}}, {"type": "Feature", "properties": {"norad_id": 41028, "name": "GSAT-15 (GAGAN/PRN 139)", "group": "gnss", "lat": -0.01751175007657684, "lon": -106.3923654995149, "alt_km": 35774.04570592172, "timestamp": "2025-12-05T05:43:15.351869+00:00", "meta": {"OBJECT_NAME": "GSAT-15 (GAGAN/PRN 139)", "OBJECT_ID": "2015-065A", "EPOCH": "2025-12-04T14:10:17.052096", "MEAN_MOTION": 1.00271688, "ECCENTRICITY": 0.0003025, "INCLINATION": 0.0357, "RA_OF_ASC_NODE": 94.9288, "ARG_OF_PERICENTER": 139.6984, "MEAN_ANOMALY": 145.1059, "EPHEMERIS_TYPE": 0, "CLASSIFICATION_TYPE": "U", "NORAD_CAT_ID": 41028, "ELEMENT_SET_NO": 999, "REV_AT_EPOCH": 3684, "BSTAR": 0, "MEAN_MOTION_DOT": -2.43e-06, "MEAN_MOTION_DDOT": 0}, "tle": {"line1": "1 41028U 15065A   25338.59047514 -.00000243  00000+0  00000+0 0  9996", "line2": "2 41028   0.0357  94.9288 0003025 139.6984 145.1059  1.00271688 36841"}}, "geometry": {"type": "Point", "coordinates": [-106.3923654995149, -0.01751175007657684]}}, {"type": "Feature", "properties": {"norad_id": 41174, "name": "GSAT0209 (GALILEO 12)", "group": "gnss", "lat": -32.260497829590875, "lon": -47.93774007919904, "alt_km": 23231.31660826647, "timestamp": "2025-12-05T05:43:15.351932+00:00", "meta": {"OBJECT_NAME": "GSAT0209 (GALILEO 12)", "OBJECT_ID": "2015-079A", "EPOCH": "2025-12-01T22:43:10.411392", "MEAN_MOTION": 1.70474306, "ECCENTRICITY": 0.0002352, "INCLINATION": 55.7062, "RA_OF_ASC_NODE": 106.6773, "ARG_OF_PERICENTER": 357.4206, "MEAN_ANOMALY": 2.5431, "EPHEMERIS_TYPE": 0, "CLASSIFICATION_TYPE": "U", "NORAD_CAT_ID": 41174, "ELEMENT_SET_NO": 999, "REV_AT_EPOCH": 6141, "BSTAR": 0, "MEAN_MOTION_DOT": 3.5e-07, "MEAN_MOTION_DDOT": 0}, "tle": {"line1": "1 41174U 15079A   25335.94664828  .00000035  00000+0  00000+0 0  9990", "line2": "2 41174  55.7062 106.6773 0002352 357.4206   2.5431  1.70474306 61412"}}, "geometry": {"type": "Point", "coordinates": [-47.93774007919904, -32.260497829590875]}}, {"type": "Feature", "properties": {"norad_id": 41175, "name": "GSAT0208 (GALILEO 11)", "group": "gnss", "lat": 55.41013102069982, "lon": -171.9925097121523, "alt_km": 23214.37962113854, "timestamp": "2025-12-05T05:43:15.351946+00:00", "meta": {"OBJECT_NAME": "GSAT0208 (GALILEO 11)", "OBJECT_ID": "2015-079B", "EPOCH": "2025-12-03T08:09:32.138784", "MEAN_MOTION": 1.70474152, "ECCENTRICITY": 0.00019072, "INCLINATION": 55.7055, "RA_OF_ASC_NODE": 106.6362, "ARG_OF_PERICENTER": 9.6551, "MEAN_ANOMALY": 350.3047, "EPHEMERIS_TYPE": 0, "CLASSIFICATION_TYPE": "U", "NORAD_CAT_ID": 41175, "ELEMENT_SET_NO": 999, "REV_AT_EPOCH": 6185, "BSTAR": 0, "MEAN_MOTION_DOT": 2.2e-07, "MEAN_MOTION_DDOT": 0}, "tle": {"line1": "1 41175U 15079B   25337.33995531  .00000022  00000+0  00000+0 0  9990", "line2": "2 41175  55.7055 106.6362 0001907   9.6551 350.3047  1.70474152 61857"}}, "geometry": {"type": "Point", "coordinates": [-171.9925097121523, 55.41013102069982]}}, {"type": "Feature", "properties": {"norad_id": 41241, "name": "IRNSS-1E", "group": "gnss", "lat": -15.450827540637148, "lon": -92.09201498108132, "alt_km": 35701.14065346625, "timestamp": "2025-12-05T05:43:15.351961+00:00", "meta": {"OBJECT_NAME": "IRNSS-1E", "OBJECT_ID": "2016-003A", "EPOCH": "2025-12-03T17:21:12.375360", "MEAN_MOTION": 1.00277647, "ECCENTRICITY": 0.00219003, "INCLINATION": 32.8059, "RA_OF_ASC_NODE": 62.5847, "ARG_OF_PERICENTER": 186.7982, "MEAN_ANOMALY": 195.4387, "EPHEMERIS_TYPE": 0, "CLASSIFICATION_TYPE": "U", "NORAD_CAT_ID": 41241, "ELEMENT_SET_NO": 999, "REV_AT_EPOCH": 3612, "BSTAR": 0, "MEAN_MOTION_DOT": -3.08e-06, "MEAN_MOTION_DDOT": 0}, "tle": {"line1": "1 41241U 16003A   25337.72305990 -.00000308  00000+0  00000+0 0  9997", "line2": "2 41241  32.8059  62.5847 0021900 186.7982 195.4387  1.00277647 36129"}}, "geometry": {"type": "Point", "coordinates": [-92.09201498108132, -15.450827540637148]}}, {"type": "Feature", "properties": {"norad_id": 41328, "name": "GPS BIIF-12 (PRN 32)", "group": "gnss", "lat": -40.68605311175403, "lon": -46.500382835018414, "alt_km": 19948.32273333782, "timestamp": "2025-12-05T05:43:15.351973+00:00", "meta": {"OBJECT_NAME": "GPS BIIF-12 (PRN 32)", "OBJECT_ID": "2016-007A", "EPOCH": "2025-12-03T22:01:44.177088", "MEAN_MOTION": 2.00561076, "ECCENTRICITY": 0.0091739, "INCLINATION": 55.4011, "RA_OF_ASC_NODE": 97.2072, "ARG_OF_PERICENTER": 243.359, "MEAN_ANOMALY": 115.6713, "EPHEMERIS_TYPE": 0, "CLASSIFICATION_TYPE": "U", "NORAD_CAT_ID": 41328, "ELEMENT_SET_NO": 999, "REV_AT_EPOCH": 7192, "BSTAR": 0, "MEAN_MOTION_DOT": -7e-08, "MEAN_MOTION_DDOT": 0}, "tle": {"line1": "1 41328U 16007A   25337.91787242 -.00000007  00000+0  00000+0 0  9998", "line2": "2 41328  55.4011  97.2072 0091739 243.3590 115.6713  2.00561076 71928"}}, "geometry": {"type": "Point", "coordinates": [-46.500382835018414, -40.68605311175403]}}, {"type": "Feature", "properties": {"norad_id": 41330, "name": "COSMOS 2514 (751)", "group": "gnss", "lat": 5.422462963572693, "lon": 137.12668118039318, "alt_km": 19107.631432273636, "timestamp": "2025-12-05T05:43:15.351984+00:00", "meta": {"OBJECT_NAME": "COSMOS 2514 (751)", "OBJECT_ID": "2016-008A", "EPOCH": "2025-12-03T14:29:09.873600", "MEAN_MOTION": 2.1310246, "ECCENTRICITY": 0.00124497, "INCLINATION": 65.139, "RA_OF_ASC_NODE": 319.717, "ARG_OF_PERICENTER": 219.8924, "MEAN_ANOMALY": 140.017, "EPHEMERIS_TYPE": 0, "CLASSIFICATION_TYPE": "U", "NORAD_CAT_ID": 41330, "ELEMENT_SET_NO": 999, "REV_AT_EPOCH": 7645, "BSTAR": 0, "MEAN_MOTION_DOT": -4.2e-07, "MEAN_MOTION_DDOT": 0}, "tle": {"line1": "1 41330U 16008A   25337.60358650 -.00000042  00000+0  00000+0 0  9994", "line2": "2 41330  65.1390 319.7170 0012449 219.8924 140.0170  2.13102460 76454"}}, "geometry": {"type": "Point", "coordinates": [137.12668118039318, 5.422462963572693]}}, {"type": "Feature", "properties": {"norad_id": 41384, "name": "IRNSS-1F", "group": "gnss", "lat": 4.844522578329284, "lon": -167.77159644162091, "alt_km": 35784.004340283784, "timestamp": "2025-12-05T05:43:15.351996+00:00", "meta": {"OBJECT_NAME": "IRNSS-1F", "OBJECT_ID": "2016-015A", "EPOCH": "2025-12-04T13:52:48.727200", "MEAN_MOTION": 1.00268262, "ECCENTRICITY": 0.0022409, "INCLINATION": 4.8599, "RA_OF_ASC_NODE": 101.5018, "ARG_OF_PERICENTER": 179.6667, "MEAN_ANOMALY": 33.0691, "EPHEMERIS_TYPE": 0, "CLASSIFICATION_TYPE": "U", "NORAD_CAT_ID": 41384, "ELEMENT_SET_NO": 999, "REV_AT_EPOCH": 3571, "BSTAR": 0, "MEAN_MOTION_DOT": 1.71e-06, "MEAN_MOTION_DDOT": 0}, "tle": {"line1": "1 41384U 16015A   25338.57834175  .00000171  00000+0  00000+0 0  9991", "line2": "2 41384   4.8599 101.5018 0022409 179.6667  33.0691  1.00268262 35717"}}, "geometry": {"type": "Point", "coordinates": [-167.77159644162091, 4.844522578329284]}}, {"type": "Feature", "properties": {"norad_id": 41434, "name": "BEIDOU-2 IGSO-6 (C13)", "group": "gnss", "lat": -26.986504081954266, "lon": -122.87426105990887, "alt_km": 35558.533924683354, "timestamp": "2025-12-05T05:43:15.352007+00:00", "meta": {"OBJECT_NAME": "BEIDOU-2 IGSO-6 (C13)", "OBJECT_ID": "2016-021A", "EPOCH": "2025-12-01T15:57:35.287200", "MEAN_MOTION": 1.00256562, "ECCENTRICITY": 0.00591323, "INCLINATION": 59.9483, "RA_OF_ASC_NODE": 40.0119, "ARG_OF_PERICENTER": 231.2834, "MEAN_ANOMALY": 130.8807, "EPHEMERIS_TYPE": 0, "CLASSIFICATION_TYPE": "U", "NORAD_CAT_ID": 41434, "ELEMENT_SET_NO": 999, "REV_AT_EPOCH": 3550, "BSTAR": 0, "MEAN_MOTION_DOT": -1.55e-06, "MEAN_MOTION_DDOT": 0}, "tle": {"line1": "1 41434U 16021A   25335.66499175 -.00000155  00000+0  00000+0 0  9991", "line2": "2 41434  59.9483  40.0119 0059132 231.2834 130.8807  1.00256562 35501"}}, "geometry": {"type": "Point", "coordinates": [-122.87426105990887, -26.986504081954266]}}, {"type": "Feature", "properties": {"norad_id": 41469, "name": "IRNSS-1G", "group": "gnss", "lat": -0.6303286885822792, "lon": -70.31276803278986, "alt_km": 35793.46287628997, "timestamp": "2025-12-05T05:43:15.352019+00:00", "meta": {"OBJECT_NAME": "IRNSS-1G", "OBJECT_ID": "2016-027A", "EPOCH": "2025-12-04T14:20:38.560128", "MEAN_MOTION": 1.00289359, "ECCENTRICITY": 0.0002879, "INCLINATION": 4.713, "RA_OF_ASC_NODE": 102.3035, "ARG_OF_PERICENTER": 3.0544, "MEAN_ANOMALY": 313.0402, "EPHEMERIS_TYPE": 0, "CLASSIFICATION_TYPE": "U", "NORAD_CAT_ID": 41469, "ELEMENT_SET_NO": 999, "REV_AT_EPOCH": 3522, "BSTAR": 0, "MEAN_MOTION_DOT": -3.2e-06, "MEAN_MOTION_DDOT": 0}, "tle": {"line1": "1 41469U 16027A   25338.59766852 -.00000320  00000+0  00000+0 0  9993", "line2": "2 41469   4.7130 102.3035 0002879   3.0544 313.0402  1.00289359 35229"}}, "geometry": {"type": "Point", "coordinates": [-70.31276803278986, -0.6303286885822792]}}]}